[{"OBJECT_NAME":"ZACUBE-1 (TSHEPISOSAT)","OBJECT_ID":"2013-066B","EPOCH":"2026-03-09T22:19:27.469056","MEAN_MOTION":15.00329659,"ECCENTRICITY":0.00425262,"INCLINATION":97.8171,"RA_OF_ASC_NODE":30.7553,"ARG_OF_PERICENTER":219.1599,"MEAN_ANOMALY":140.6545,"EPHEMERIS_TYPE":0,"CLASSIFICATION_TYPE":"U","NORAD_CAT_ID":39417,"ELEMENT_SET_NO":999,"REV_AT_EPOCH":66584,"BSTAR":0.00042975473,"MEAN_MOTION_DOT":5.431e-5,"MEAN_MOTION_DDOT":0},{"OBJECT_NAME":"STARLINK-5303","OBJECT_ID":"2023-021C","EPOCH":"2026-03-09T19:15:47.208672","MEAN_MOTION":14.98330043,"ECCENTRICITY":0.00030645,"INCLINATION":70.0006,"RA_OF_ASC_NODE":204.2304,"ARG_OF_PERICENTER":269.6598,"MEAN_ANOMALY":90.421,"EPHEMERIS_TYPE":0,"CLASSIFICATION_TYPE":"U","NORAD_CAT_ID":55630,"ELEMENT_SET_NO":999,"REV_AT_EPOCH":16831,"BSTAR":1.049799e-5,"MEAN_MOTION_DOT":3.2e-7,"MEAN_MOTION_DDOT":0}]
